CCSDS_OMM_VERS = 2.0
CREATION_DATE  = 
ORIGINATOR     = 

OBJECT_NAME    = SL-16 R/B
OBJECT_ID      = 1998-043G
CENTER_NAME    = EARTH
REF_FRAME      = TEME
TIME_SYSTEM    = UTC
MEAN_ELEMENT_THEORY = SGP/SGP4

EPOCH          = 2026-02-14T10:29:44.160288
MEAN_MOTION    = 14.26044194
ECCENTRICITY   = .0010994
INCLINATION    = 98.8214
RA_OF_ASC_NODE = 358.6418
ARG_OF_PERICENTER = 82.6171
MEAN_ANOMALY   = 277.6258

EPHEMERIS_TYPE = 0
CLASSIFICATION_TYPE = U
NORAD_CAT_ID   = 25400
ELEMENT_SET_NO = 999
REV_AT_EPOCH   = 43567
BSTAR          = .50632E-4
MEAN_MOTION_DOT = .76E-6
MEAN_MOTION_DDOT = 0

CCSDS_OMM_VERS = 2.0
CREATION_DATE  = 
ORIGINATOR     = 

OBJECT_NAME    = SL-16 R/B
OBJECT_ID      = 1998-045B
CENTER_NAME    = EARTH
REF_FRAME      = TEME
TIME_SYSTEM    = UTC
MEAN_ELEMENT_THEORY = SGP/SGP4

EPOCH          = 2026-02-14T11:25:40.304352
MEAN_MOTION    = 14.16187597
ECCENTRICITY   = .0005629
INCLINATION    = 71.0086
RA_OF_ASC_NODE = 230.3905
ARG_OF_PERICENTER = 50.5775
MEAN_ANOMALY   = 309.5846

EPHEMERIS_TYPE = 0
CLASSIFICATION_TYPE = U
NORAD_CAT_ID   = 25407
ELEMENT_SET_NO = 999
REV_AT_EPOCH   = 42381
BSTAR          = .18314E-3
MEAN_MOTION_DOT = .315E-5
MEAN_MOTION_DDOT = 0

CCSDS_OMM_VERS = 2.0
CREATION_DATE  = 
ORIGINATOR     = 

OBJECT_NAME    = ISS (ZARYA)
OBJECT_ID      = 1998-067A
CENTER_NAME    = EARTH
REF_FRAME      = TEME
TIME_SYSTEM    = UTC
MEAN_ELEMENT_THEORY = SGP/SGP4

EPOCH          = 2026-02-14T09:47:35.232288
MEAN_MOTION    = 15.48597273
ECCENTRICITY   = .0011059
INCLINATION    = 51.6315
RA_OF_ASC_NODE = 187.4424
ARG_OF_PERICENTER = 97.5886
MEAN_ANOMALY   = 262.6359

EPHEMERIS_TYPE = 0
CLASSIFICATION_TYPE = U
NORAD_CAT_ID   = 25544
ELEMENT_SET_NO = 999
REV_AT_EPOCH   = 55272
BSTAR          = .16764E-3
MEAN_MOTION_DOT = .8682E-4
MEAN_MOTION_DDOT = 0

CCSDS_OMM_VERS = 2.0
CREATION_DATE  = 
ORIGINATOR     = 

OBJECT_NAME    = CZ-4B R/B
OBJECT_ID      = 1999-025C
CENTER_NAME    = EARTH
REF_FRAME      = TEME
TIME_SYSTEM    = UTC
MEAN_ELEMENT_THEORY = SGP/SGP4

EPOCH          = 2026-02-14T02:25:22.553472
MEAN_MOTION    = 14.18260492
ECCENTRICITY   = .00379599
INCLINATION    = 98.6674
RA_OF_ASC_NODE = 89.9360
ARG_OF_PERICENTER = 53.9246
MEAN_ANOMALY   = 0.6771

EPHEMERIS_TYPE = 0
CLASSIFICATION_TYPE = U
NORAD_CAT_ID   = 25732
ELEMENT_SET_NO = 999
REV_AT_EPOCH   = 38482
BSTAR          = .51588322E-4
MEAN_MOTION_DOT = .64E-6
MEAN_MOTION_DDOT = 0

CCSDS_OMM_VERS = 2.0
CREATION_DATE  = 
ORIGINATOR     = 

OBJECT_NAME    = OKEAN-O
OBJECT_ID      = 1999-039A
CENTER_NAME    = EARTH
REF_FRAME      = TEME
TIME_SYSTEM    = UTC
MEAN_ELEMENT_THEORY = SGP/SGP4

EPOCH          = 2026-02-14T03:05:58.719840
MEAN_MOTION    = 14.80296158
ECCENTRICITY   = .00018536
INCLINATION    = 97.9495
RA_OF_ASC_NODE = 105.2540
ARG_OF_PERICENTER = 82.8921
MEAN_ANOMALY   = 277.2502

EPHEMERIS_TYPE = 0
CLASSIFICATION_TYPE = U
NORAD_CAT_ID   = 25860
ELEMENT_SET_NO = 999
REV_AT_EPOCH   = 43090
BSTAR          = .98534798E-4
MEAN_MOTION_DOT = .698E-5
MEAN_MOTION_DDOT = 0

CCSDS_OMM_VERS = 2.0
CREATION_DATE  = 
ORIGINATOR     = 

OBJECT_NAME    = SL-16 R/B
OBJECT_ID      = 1999-039B
CENTER_NAME    = EARTH
REF_FRAME      = TEME
TIME_SYSTEM    = UTC
MEAN_ELEMENT_THEORY = SGP/SGP4

EPOCH          = 2026-02-14T03:09:02.126304
MEAN_MOTION    = 14.81697750
ECCENTRICITY   = .00142204
INCLINATION    = 98.0018
RA_OF_ASC_NODE = 104.2567
ARG_OF_PERICENTER = 339.0448
MEAN_ANOMALY   = 21.0180

EPHEMERIS_TYPE = 0
CLASSIFICATION_TYPE = U
NORAD_CAT_ID   = 25861
ELEMENT_SET_NO = 999
REV_AT_EPOCH   = 43337
BSTAR          = .85214921E-4
MEAN_MOTION_DOT = .618E-5
MEAN_MOTION_DDOT = 0

CCSDS_OMM_VERS = 2.0
CREATION_DATE  = 
ORIGINATOR     = 

OBJECT_NAME    = DELTA 2 R/B
OBJECT_ID      = 1999-041E
CENTER_NAME    = EARTH
REF_FRAME      = TEME
TIME_SYSTEM    = UTC
MEAN_ELEMENT_THEORY = SGP/SGP4

EPOCH          = 2026-02-14T08:42:49.419072
MEAN_MOTION    = 14.11747783
ECCENTRICITY   = .0502253
INCLINATION    = 51.7655
RA_OF_ASC_NODE = 34.4343
ARG_OF_PERICENTER = 279.5273
MEAN_ANOMALY   = 74.9260

EPHEMERIS_TYPE = 0
CLASSIFICATION_TYPE = U
NORAD_CAT_ID   = 25876
ELEMENT_SET_NO = 999
REV_AT_EPOCH   = 35973
BSTAR          = .4025E-3
MEAN_MOTION_DOT = .227E-4
MEAN_MOTION_DDOT = 0

CCSDS_OMM_VERS = 2.0
CREATION_DATE  = 
ORIGINATOR     = 

OBJECT_NAME    = HELIOS 1B
OBJECT_ID      = 1999-064A
CENTER_NAME    = EARTH
REF_FRAME      = TEME
TIME_SYSTEM    = UTC
MEAN_ELEMENT_THEORY = SGP/SGP4

EPOCH          = 2026-02-14T05:45:07.590816
MEAN_MOTION    = 14.87599488
ECCENTRICITY   = .00022409
INCLINATION    = 98.1723
RA_OF_ASC_NODE = 306.7912
ARG_OF_PERICENTER = 105.9520
MEAN_ANOMALY   = 254.1942

EPHEMERIS_TYPE = 0
CLASSIFICATION_TYPE = U
NORAD_CAT_ID   = 25977
ELEMENT_SET_NO = 999
REV_AT_EPOCH   = 68177
BSTAR          = .22113447E-3
MEAN_MOTION_DOT = .1951E-4
MEAN_MOTION_DDOT = 0

CCSDS_OMM_VERS = 2.0
CREATION_DATE  = 
ORIGINATOR     = 

OBJECT_NAME    = TERRA
OBJECT_ID      = 1999-068A
CENTER_NAME    = EARTH
REF_FRAME      = TEME
TIME_SYSTEM    = UTC
MEAN_ELEMENT_THEORY = SGP/SGP4

EPOCH          = 2026-02-14T05:25:08.180832
MEAN_MOTION    = 14.60989012
ECCENTRICITY   = .00010747
INCLINATION    = 97.9644
RA_OF_ASC_NODE = 99.5508
ARG_OF_PERICENTER = 232.2326
MEAN_ANOMALY   = 197.5159

EPHEMERIS_TYPE = 0
CLASSIFICATION_TYPE = U
NORAD_CAT_ID   = 25994
ELEMENT_SET_NO = 999
REV_AT_EPOCH   = 39165
BSTAR          = .11458089E-3
MEAN_MOTION_DOT = .517E-5
MEAN_MOTION_DDOT = 0

CCSDS_OMM_VERS = 2.0
CREATION_DATE  = 
ORIGINATOR     = 

OBJECT_NAME    = SL-16 R/B
OBJECT_ID      = 2000-006B
CENTER_NAME    = EARTH
REF_FRAME      = TEME
TIME_SYSTEM    = UTC
MEAN_ELEMENT_THEORY = SGP/SGP4

EPOCH          = 2026-02-14T06:33:55.240992
MEAN_MOTION    = 14.15819299
ECCENTRICITY   = .00181395
INCLINATION    = 71.0028
RA_OF_ASC_NODE = 147.0729
ARG_OF_PERICENTER = 223.2462
MEAN_ANOMALY   = 136.7238

EPHEMERIS_TYPE = 0
CLASSIFICATION_TYPE = U
NORAD_CAT_ID   = 26070
ELEMENT_SET_NO = 999
REV_AT_EPOCH   = 34524
BSTAR          = -.90806075E-4
MEAN_MOTION_DOT = -.227E-5
MEAN_MOTION_DDOT = 0

CCSDS_OMM_VERS = 2.0
CREATION_DATE  = 
ORIGINATOR     = 

OBJECT_NAME    = TITAN 4B R/B
OBJECT_ID      = 2000-047B
CENTER_NAME    = EARTH
REF_FRAME      = TEME
TIME_SYSTEM    = UTC
MEAN_ELEMENT_THEORY = SGP/SGP4

EPOCH          = 2026-02-14T10:31:02.571744
MEAN_MOTION    = 15.09360954
ECCENTRICITY   = .0037069
INCLINATION    = 67.9888
RA_OF_ASC_NODE = 105.8839
ARG_OF_PERICENTER = 63.8998
MEAN_ANOMALY   = 296.5958

EPHEMERIS_TYPE = 0
CLASSIFICATION_TYPE = U
NORAD_CAT_ID   = 26474
ELEMENT_SET_NO = 999
REV_AT_EPOCH   = 38940
BSTAR          = .22064E-3
MEAN_MOTION_DOT = .3452E-4
MEAN_MOTION_DDOT = 0

CCSDS_OMM_VERS = 2.0
CREATION_DATE  = 
ORIGINATOR     = 

OBJECT_NAME    = ENVISAT
OBJECT_ID      = 2002-009A
CENTER_NAME    = EARTH
REF_FRAME      = TEME
TIME_SYSTEM    = UTC
MEAN_ELEMENT_THEORY = SGP/SGP4

EPOCH          = 2026-02-14T11:13:44.292000
MEAN_MOTION    = 14.39028171
ECCENTRICITY   = .000135
INCLINATION    = 98.3688
RA_OF_ASC_NODE = 359.6241
ARG_OF_PERICENTER = 87.7408
MEAN_ANOMALY   = 24.2305

EPHEMERIS_TYPE = 0
CLASSIFICATION_TYPE = U
NORAD_CAT_ID   = 27386
ELEMENT_SET_NO = 999
REV_AT_EPOCH   = 25583
BSTAR          = .60789E-4
MEAN_MOTION_DOT = .145E-5
MEAN_MOTION_DDOT = 0

